{"type": "FeatureCollection", "features": [ {"type": "Feature", "properties": {"norad_id": 29853, "name": "FENGYUN 1C DEB", "group": "fengyun-1c-debris", "lat": 48.04804397550143, "lon": 94.81907303343314, "alt_km": 1028.037511419966, "timestamp": "2025-12-08T08:59:01.037465+00:00", "meta": {"OBJECT_NAME": "FENGYUN 1C DEB", "OBJECT_ID": "1999-025EX", "EPOCH": "2025-12-07T06:54:01.090368", "MEAN_MOTION": 13.93762563, "ECCENTRICITY": 0.01611658, "INCLINATION": 98.4582, "RA_OF_ASC_NODE": 103.3523, "ARG_OF_PERICENTER": 237.6664, "MEAN_ANOMALY": 120.8808, "EPHEMERIS_TYPE": 0, "CLASSIFICATION_TYPE": "U", "NORAD_CAT_ID": 29853, "ELEMENT_SET_NO": 999, "REV_AT_EPOCH": 95593, "BSTAR": 0.0025196025, "MEAN_MOTION_DOT": 3.655e-05, "MEAN_MOTION_DDOT": 0}, "tle": {"line1": "1 29853U 99025EX  25341.28751262  .00003655  00000+0  25196-2 0  9993", "line2": "2 29853  98.4582 103.3523 0161165 237.6664 120.8808 13.93762563955939"}}, "geometry": {"type": "Point", "coordinates": [94.81907303343314, 48.04804397550143]}}, {"type": "Feature", "properties": {"norad_id": 29854, "name": "FENGYUN 1C DEB", "group": "fengyun-1c-debris", "lat": 72.67568088131992, "lon": -6.01260100054741, "alt_km": 864.4164577910587, "timestamp": "2025-12-08T08:59:01.037476+00:00", "meta": {"OBJECT_NAME": "FENGYUN 1C DEB", "OBJECT_ID": "1999-025EY", "EPOCH": "2025-12-07T22:49:07.826592", "MEAN_MOTION": 13.83336808, "ECCENTRICITY": 0.01474455, "INCLINATION": 98.9272, "RA_OF_ASC_NODE": 143.3277, "ARG_OF_PERICENTER": 63.6937, "MEAN_ANOMALY": 91.9989, "EPHEMERIS_TYPE": 0, "CLASSIFICATION_TYPE": "U", "NORAD_CAT_ID": 29854, "ELEMENT_SET_NO": 999, "REV_AT_EPOCH": 95277, "BSTAR": 0.0003619083, "MEAN_MOTION_DOT": 3.92e-06, "MEAN_MOTION_DDOT": 0}, "tle": {"line1": "1 29854U 99025EY  25341.95078503  .00000392  00000+0  36191-3 0  9991", "line2": "2 29854  98.9272 143.3277 0147445  63.6937  91.9989 13.83336808952771"}}, "geometry": {"type": "Point", "coordinates": [-6.01260100054741, 72.67568088131992]}}, {"type": "Feature", "properties": {"norad_id": 29855, "name": "FENGYUN 1C DEB", "group": "fengyun-1c-debris", "lat": -19.452361665503986, "lon": -72.56524715024088, "alt_km": 863.3706617521129, "timestamp": "2025-12-08T08:59:01.037486+00:00", "meta": {"OBJECT_NAME": "FENGYUN 1C DEB", "OBJECT_ID": "1999-025EZ", "EPOCH": "2025-12-07T19:39:20.342880", "MEAN_MOTION": 14.01526601, "ECCENTRICITY": 0.01840403, "INCLINATION": 98.1814, "RA_OF_ASC_NODE": 284.0239, "ARG_OF_PERICENTER": 60.0168, "MEAN_ANOMALY": 2.1363, "EPHEMERIS_TYPE": 0, "CLASSIFICATION_TYPE": "U", "NORAD_CAT_ID": 29855, "ELEMENT_SET_NO": 999, "REV_AT_EPOCH": 95643, "BSTAR": 0.0035592367, "MEAN_MOTION_DOT": 6.207e-05, "MEAN_MOTION_DDOT": 0}, "tle": {"line1": "1 29855U 99025EZ  25341.81898545  .00006207  00000+0  35592-2 0  9997", "line2": "2 29855  98.1814 284.0239 0184040  60.0168   2.1363 14.01526601956436"}}, "geometry": {"type": "Point", "coordinates": [-72.56524715024088, -19.452361665503986]}}, {"type": "Feature", "properties": {"norad_id": 29856, "name": "FENGYUN 1C DEB", "group": "fengyun-1c-debris", "lat": -56.98698117066535, "lon": -117.40489251542124, "alt_km": 681.9743259681482, "timestamp": "2025-12-08T08:59:01.037496+00:00", "meta": {"OBJECT_NAME": "FENGYUN 1C DEB", "OBJECT_ID": "1999-025FA", "EPOCH": "2025-12-07T17:39:25.850304", "MEAN_MOTION": 14.47556902, "ECCENTRICITY": 0.02628488, "INCLINATION": 98.6894, "RA_OF_ASC_NODE": 75.5524, "ARG_OF_PERICENTER": 313.0384, "MEAN_ANOMALY": 201.7983, "EPHEMERIS_TYPE": 0, "CLASSIFICATION_TYPE": "U", "NORAD_CAT_ID": 29856, "ELEMENT_SET_NO": 999, "REV_AT_EPOCH": 96302, "BSTAR": 0.0035993091, "MEAN_MOTION_DOT": 0.00020482, "MEAN_MOTION_DDOT": 0}, "tle": {"line1": "1 29856U 99025FA  25341.73571586  .00020482  00000+0  35993-2 0  9998", "line2": "2 29856  98.6894  75.5524 0262848 313.0384 201.7983 14.47556902963029"}}, "geometry": {"type": "Point", "coordinates": [-117.40489251542124, -56.98698117066535]}}, {"type": "Feature", "properties": {"norad_id": 29857, "name": "FENGYUN 1C DEB", "group": "fengyun-1c-debris", "lat": -2.2605549668924385, "lon": -9.497251267614939, "alt_km": 870.6752975630734, "timestamp": "2025-12-08T08:59:01.037506+00:00", "meta": {"OBJECT_NAME": "FENGYUN 1C DEB", "OBJECT_ID": "1999-025FB", "EPOCH": "2025-12-07T12:08:29.869728", "MEAN_MOTION": 13.81848961, "ECCENTRICITY": 0.0192926, "INCLINATION": 98.4221, "RA_OF_ASC_NODE": 349.3914, "ARG_OF_PERICENTER": 308.7199, "MEAN_ANOMALY": 49.6844, "EPHEMERIS_TYPE": 0, "CLASSIFICATION_TYPE": "U", "NORAD_CAT_ID": 29857, "ELEMENT_SET_NO": 999, "REV_AT_EPOCH": 94703, "BSTAR": 0.0028182433, "MEAN_MOTION_DOT": 3.441e-05, "MEAN_MOTION_DDOT": 0}, "tle": {"line1": "1 29857U 99025FB  25341.50590127  .00003441  00000+0  28182-2 0  9994", "line2": "2 29857  98.4221 349.3914 0192926 308.7199  49.6844 13.81848961947035"}}, "geometry": {"type": "Point", "coordinates": [-9.497251267614939, -2.2605549668924385]}}, {"type": "Feature", "properties": {"norad_id": 29858, "name": "FENGYUN 1C DEB", "group": "fengyun-1c-debris", "lat": -39.65193010209397, "lon": 91.86081776903077, "alt_km": 1040.2414721287123, "timestamp": "2025-12-08T08:59:01.037517+00:00", "meta": {"OBJECT_NAME": "FENGYUN 1C DEB", "OBJECT_ID": "1999-025FC", "EPOCH": "2025-12-07T18:12:56.433600", "MEAN_MOTION": 13.77770548, "ECCENTRICITY": 0.01988354, "INCLINATION": 99.2134, "RA_OF_ASC_NODE": 83.5329, "ARG_OF_PERICENTER": 77.5896, "MEAN_ANOMALY": 73.8852, "EPHEMERIS_TYPE": 0, "CLASSIFICATION_TYPE": "U", "NORAD_CAT_ID": 29858, "ELEMENT_SET_NO": 999, "REV_AT_EPOCH": 94485, "BSTAR": 0.0018741921, "MEAN_MOTION_DOT": 2.129e-05, "MEAN_MOTION_DDOT": 0}, "tle": {"line1": "1 29858U 99025FC  25341.75898650  .00002129  00000+0  18742-2 0  9997", "line2": "2 29858  99.2134  83.5329 0198835  77.5896  73.8852 13.77770548944850"}}, "geometry": {"type": "Point", "coordinates": [91.86081776903077, -39.65193010209397]}}, {"type": "Feature", "properties": {"norad_id": 29859, "name": "FENGYUN 1C DEB", "group": "fengyun-1c-debris", "lat": -58.32413613324718, "lon": -168.6183237694016, "alt_km": 933.5604846583683, "timestamp": "2025-12-08T08:59:01.037527+00:00", "meta": {"OBJECT_NAME": "FENGYUN 1C DEB", "OBJECT_ID": "1999-025FD", "EPOCH": "2025-12-07T00:04:08.566752", "MEAN_MOTION": 13.73978764, "ECCENTRICITY": 0.02953819, "INCLINATION": 98.3349, "RA_OF_ASC_NODE": 176.4393, "ARG_OF_PERICENTER": 228.477, "MEAN_ANOMALY": 129.0698, "EPHEMERIS_TYPE": 0, "CLASSIFICATION_TYPE": "U", "NORAD_CAT_ID": 29859, "ELEMENT_SET_NO": 999, "REV_AT_EPOCH": 93901, "BSTAR": 0.0041090436, "MEAN_MOTION_DOT": 5.25e-05, "MEAN_MOTION_DDOT": 0}, "tle": {"line1": "1 29859U 99025FD  25341.00287693  .00005250  00000+0  41090-2 0  9995", "line2": "2 29859  98.3349 176.4393 0295381 228.4770 129.0698 13.73978764939014"}}, "geometry": {"type": "Point", "coordinates": [-168.6183237694016, -58.32413613324718]}}, {"type": "Feature", "properties": {"norad_id": 29860, "name": "FENGYUN 1C DEB", "group": "fengyun-1c-debris", "lat": 24.647081428324523, "lon": 12.698388689369736, "alt_km": 830.2249067666689, "timestamp": "2025-12-08T08:59:01.037538+00:00", "meta": {"OBJECT_NAME": "FENGYUN 1C DEB", "OBJECT_ID": "1999-025FE", "EPOCH": "2025-12-07T14:25:22.601856", "MEAN_MOTION": 13.77490232, "ECCENTRICITY": 0.02210391, "INCLINATION": 98.6167, "RA_OF_ASC_NODE": 15.9856, "ARG_OF_PERICENTER": 357.2467, "MEAN_ANOMALY": 153.5595, "EPHEMERIS_TYPE": 0, "CLASSIFICATION_TYPE": "U", "NORAD_CAT_ID": 29860, "ELEMENT_SET_NO": 999, "REV_AT_EPOCH": 94068, "BSTAR": 0.0036432559, "MEAN_MOTION_DOT": 4.307e-05, "MEAN_MOTION_DDOT": 0}, "tle": {"line1": "1 29860U 99025FE  25341.60095604  .00004307  00000+0  36433-2 0  9999", "line2": "2 29860  98.6167  15.9856 0221039 357.2467 153.5595 13.77490232940687"}}, "geometry": {"type": "Point", "coordinates": [12.698388689369736, 24.647081428324523]}}, {"type": "Feature", "properties": {"norad_id": 29865, "name": "FENGYUN 1C DEB", "group": "fengyun-1c-debris", "lat": -81.0085752744432, "lon": -24.34459310868769, "alt_km": 663.5627824589301, "timestamp": "2025-12-08T08:59:01.037548+00:00", "meta": {"OBJECT_NAME": "FENGYUN 1C DEB", "OBJECT_ID": "1999-025FK", "EPOCH": "2025-12-07T17:26:25.215072", "MEAN_MOTION": 14.82513127, "ECCENTRICITY": 0.0116122, "INCLINATION": 98.9201, "RA_OF_ASC_NODE": 251.9051, "ARG_OF_PERICENTER": 157.1285, "MEAN_ANOMALY": 258.3277, "EPHEMERIS_TYPE": 0, "CLASSIFICATION_TYPE": "U", "NORAD_CAT_ID": 29865, "ELEMENT_SET_NO": 999, "REV_AT_EPOCH": 684, "BSTAR": 0.0010872386, "MEAN_MOTION_DOT": 9.766e-05, "MEAN_MOTION_DDOT": 0}, "tle": {"line1": "1 29865U 99025FK  25341.72668073  .00009766  00000+0  10872-2 0  9996", "line2": "2 29865  98.9201 251.9051 0116122 157.1285 258.3277 14.82513127  6842"}}, "geometry": {"type": "Point", "coordinates": [-24.34459310868769, -81.0085752744432]}}, {"type": "Feature", "properties": {"norad_id": 29866, "name": "FENGYUN 1C DEB", "group": "fengyun-1c-debris", "lat": -29.704716944989784, "lon": -27.16890031621677, "alt_km": 710.059591249591, "timestamp": "2025-12-08T08:59:01.037558+00:00", "meta": {"OBJECT_NAME": "FENGYUN 1C DEB", "OBJECT_ID": "1999-025FL", "EPOCH": "2025-12-07T21:55:08.914368", "MEAN_MOTION": 14.64184357, "ECCENTRICITY": 0.01941926, "INCLINATION": 98.037, "RA_OF_ASC_NODE": 327.7574, "ARG_OF_PERICENTER": 230.173, "MEAN_ANOMALY": 189.1055, "EPHEMERIS_TYPE": 0, "CLASSIFICATION_TYPE": "U", "NORAD_CAT_ID": 29866, "ELEMENT_SET_NO": 999, "REV_AT_EPOCH": 256, "BSTAR": 0.00042719068, "MEAN_MOTION_DOT": 2.903e-05, "MEAN_MOTION_DDOT": 0}, "tle": {"line1": "1 29866U 99025FL  25341.91329762  .00002903  00000+0  42719-3 0  9999", "line2": "2 29866  98.0370 327.7574 0194192 230.1730 189.1055 14.64184357  2562"}}, "geometry": {"type": "Point", "coordinates": [-27.16890031621677, -29.704716944989784]}}]}